[{"CCSDS_OMM_VERS":"2.0","COMMENT":"GENERATED VIA SPACE-TRACK.ORG API","CREATION_DATE":"2021-05-06T03:54:45","ORIGINATOR":"18 SPCS","OBJECT_NAME":"ONEWEB-0220","OBJECT_ID":"2021-031Y","CENTER_NAME":"EARTH","REF_FRAME":"TEME","TIME_SYSTEM":"UTC","MEAN_ELEMENT_THEORY":"SGP4","EPOCH":"2021-05-05T22:00:01.999584","MEAN_MOTION":"15.42240026","ECCENTRICITY":"0.00092600","INCLINATION":"87.3986","RA_OF_ASC_NODE":"309.6098","ARG_OF_PERICENTER":"213.7934","MEAN_ANOMALY":"174.2769","EPHEMERIS_TYPE":"0","CLASSIFICATION_TYPE":"U","NORAD_CAT_ID":"48232","ELEMENT_SET_NO":"999","REV_AT_EPOCH":"178","BSTAR":"0.00150660000000","MEAN_MOTION_DOT":"0.00065237","MEAN_MOTION_DDOT":"0.0000000000000","SEMIMAJOR_AXIS":"6817.637","PERIOD":"93.371","APOAPSIS":"445.815","PERIAPSIS":"433.189","OBJECT_TYPE":"PAYLOAD","RCS_SIZE":"MEDIUM","COUNTRY_CODE":"UK","LAUNCH_DATE":"2021-04-25","SITE":"VOSTO","DECAY_DATE":null,"FILE":"3031514","GP_ID":"176718775","TLE_LINE0":"0 ONEWEB-0220","TLE_LINE1":"1 48232U 21031Y   21125.91668981  .00065237  00000-0  15066-2 0  9998","TLE_LINE2":"2 48232  87.3986 309.6098 0009260 213.7934 174.2769 15.42240026  1781"},{"CCSDS_OMM_VERS":"2.0","COMMENT":"GENERATED VIA SPACE-TRACK.ORG API","CREATION_DATE":"2021-05-06T19:24:30","ORIGINATOR":"18 SPCS","OBJECT_NAME":"ONEWEB-0220","OBJECT_ID":"2021-031Y","CENTER_NAME":"EARTH","REF_FRAME":"TEME","TIME_SYSTEM":"UTC","MEAN_ELEMENT_THEORY":"SGP4","EPOCH":"2021-05-06T14:00:01.000224","MEAN_MOTION":"15.42301162","ECCENTRICITY":"0.00094150","INCLINATION":"87.3984","RA_OF_ASC_NODE":"309.3725","ARG_OF_PERICENTER":"211.0372","MEAN_ANOMALY":"275.7955","EPHEMERIS_TYPE":"0","CLASSIFICATION_TYPE":"U","NORAD_CAT_ID":"48232","ELEMENT_SET_NO":"999","REV_AT_EPOCH":"179","BSTAR":"-0.00112720000000","MEAN_MOTION_DOT":"-0.00048127","MEAN_MOTION_DDOT":"0.0000000000000","SEMIMAJOR_AXIS":"6817.457","PERIOD":"93.367","APOAPSIS":"445.740","PERIAPSIS":"432.903","OBJECT_TYPE":"PAYLOAD","RCS_SIZE":"MEDIUM","COUNTRY_CODE":"UK","LAUNCH_DATE":"2021-04-25","SITE":"VOSTO","DECAY_DATE":null,"FILE":"3031517","GP_ID":"176764622","TLE_LINE0":"0 ONEWEB-0220","TLE_LINE1":"1 48232U 21031Y   21126.58334491 -.00048127  00000-0 -11272-2 0  9994","TLE_LINE2":"2 48232  87.3984 309.3725 0009415 211.0372 275.7955 15.42301162  1796"},{"CCSDS_OMM_VERS":"2.0","COMMENT":"GENERATED VIA SPACE-TRACK.ORG API","CREATION_DATE":"2021-05-06T20:16:12","ORIGINATOR":"18 SPCS","OBJECT_NAME":"ONEWEB-0220","OBJECT_ID":"2021-031Y","CENTER_NAME":"EARTH","REF_FRAME":"TEME","TIME_SYSTEM":"UTC","MEAN_ELEMENT_THEORY":"SGP4","EPOCH":"2021-05-06T14:00:01.000224","MEAN_MOTION":"15.42301162","ECCENTRICITY":"0.00094150","INCLINATION":"87.3984","RA_OF_ASC_NODE":"309.3725","ARG_OF_PERICENTER":"211.0372","MEAN_ANOMALY":"275.7955","EPHEMERIS_TYPE":"0","CLASSIFICATION_TYPE":"U","NORAD_CAT_ID":"48232","ELEMENT_SET_NO":"999","REV_AT_EPOCH":"163","BSTAR":"-0.00112720000000","MEAN_MOTION_DOT":"-0.00048127","MEAN_MOTION_DDOT":"0.0000000000000","SEMIMAJOR_AXIS":"6817.457","PERIOD":"93.367","APOAPSIS":"445.740","PERIAPSIS":"432.903","OBJECT_TYPE":"PAYLOAD","RCS_SIZE":"MEDIUM","COUNTRY_CODE":"UK","LAUNCH_DATE":"2021-04-25","SITE":"VOSTO","DECAY_DATE":null,"FILE":"3031578","GP_ID":"176766553","TLE_LINE0":"0 ONEWEB-0220","TLE_LINE1":"1 48232U 21031Y   21126.58334491 -.00048127  00000-0 -11272-2 0  9994","TLE_LINE2":"2 48232  87.3984 309.3725 0009415 211.0372 275.7955 15.42301162  1639"},{"CCSDS_OMM_VERS":"2.0","COMMENT":"GENERATED VIA SPACE-TRACK.ORG API","CREATION_DATE":"2021-05-07T02:08:13","ORIGINATOR":"18 SPCS","OBJECT_NAME":"ONEWEB-0220","OBJECT_ID":"2021-031Y","CENTER_NAME":"EARTH","REF_FRAME":"TEME","TIME_SYSTEM":"UTC","MEAN_ELEMENT_THEORY":"SGP4","EPOCH":"2021-05-06T22:00:00.999936","MEAN_MOTION":"15.42243571","ECCENTRICITY":"0.00093890","INCLINATION":"87.3982","RA_OF_ASC_NODE":"309.2524","ARG_OF_PERICENTER":"209.6117","MEAN_ANOMALY":"326.6664","EPHEMERIS_TYPE":"0","CLASSIFICATION_TYPE":"U","NORAD_CAT_ID":"48232","ELEMENT_SET_NO":"999","REV_AT_EPOCH":"184","BSTAR":"0.00148460000000","MEAN_MOTION_DOT":"0.00064287","MEAN_MOTION_DDOT":"0.0000000000000","SEMIMAJOR_AXIS":"6817.626","PERIOD":"93.370","APOAPSIS":"445.892","PERIAPSIS":"433.090","OBJECT_TYPE":"PAYLOAD","RCS_SIZE":"MEDIUM","COUNTRY_CODE":"UK","LAUNCH_DATE":"2021-04-25","SITE":"VOSTO","DECAY_DATE":null,"FILE":"3031869","GP_ID":"176795287","TLE_LINE0":"0 ONEWEB-0220","TLE_LINE1":"1 48232U 21031Y   21126.91667824  .00064287  00000-0  14846-2 0  9993","TLE_LINE2":"2 48232  87.3982 309.2524 0009389 209.6117 326.6664 15.42243571  1848"},{"CCSDS_OMM_VERS":"2.0","COMMENT":"GENERATED VIA SPACE-TRACK.ORG API","CREATION_DATE":"2021-05-07T06:46:11","ORIGINATOR":"18 SPCS","OBJECT_NAME":"ONEWEB-0220","OBJECT_ID":"2021-031Y","CENTER_NAME":"EARTH","REF_FRAME":"TEME","TIME_SYSTEM":"UTC","MEAN_ELEMENT_THEORY":"SGP4","EPOCH":"2021-05-07T04:00:00.999936","MEAN_MOTION":"15.42299769","ECCENTRICITY":"0.00094120","INCLINATION":"87.3980","RA_OF_ASC_NODE":"309.1641","ARG_OF_PERICENTER":"207.7973","MEAN_ANOMALY":"275.5368","EPHEMERIS_TYPE":"0","CLASSIFICATION_TYPE":"U","NORAD_CAT_ID":"48232","ELEMENT_SET_NO":"999","REV_AT_EPOCH":"172","BSTAR":"-0.00138480000000","MEAN_MOTION_DOT":"-0.00059052","MEAN_MOTION_DDOT":"0.0000000000000","SEMIMAJOR_AXIS":"6817.461","PERIOD":"93.367","APOAPSIS":"445.742","PERIAPSIS":"432.909","OBJECT_TYPE":"PAYLOAD","RCS_SIZE":"MEDIUM","COUNTRY_CODE":"UK","LAUNCH_DATE":"2021-04-25","SITE":"VOSTO","DECAY_DATE":null,"FILE":"3031967","GP_ID":"176797676","TLE_LINE0":"0 ONEWEB-0220","TLE_LINE1":"1 48232U 21031Y   21127.16667824 -.00059052  00000-0 -13848-2 0  9998","TLE_LINE2":"2 48232  87.3980 309.1641 0009412 207.7973 275.5368 15.42299769  1721"},{"CCSDS_OMM_VERS":"2.0","COMMENT":"GENERATED VIA SPACE-TRACK.ORG API","CREATION_DATE":"2021-05-07T19:25:20","ORIGINATOR":"18 SPCS","OBJECT_NAME":"ONEWEB-0220","OBJECT_ID":"2021-031Y","CENTER_NAME":"EARTH","REF_FRAME":"TEME","TIME_SYSTEM":"UTC","MEAN_ELEMENT_THEORY":"SGP4","EPOCH":"2021-05-07T14:00:01.000224","MEAN_MOTION":"15.42308204","ECCENTRICITY":"0.00096400","INCLINATION":"87.3979","RA_OF_ASC_NODE":"309.0149","ARG_OF_PERICENTER":"206.6398","MEAN_ANOMALY":"68.4714","EPHEMERIS_TYPE":"0","CLASSIFICATION_TYPE":"U","NORAD_CAT_ID":"48232","ELEMENT_SET_NO":"999","REV_AT_EPOCH":"183","BSTAR":"-0.00131800000000","MEAN_MOTION_DOT":"-0.00056242","MEAN_MOTION_DDOT":"0.0000000000000","SEMIMAJOR_AXIS":"6817.436","PERIOD":"93.367","APOAPSIS":"445.873","PERIAPSIS":"432.729","OBJECT_TYPE":"PAYLOAD","RCS_SIZE":"MEDIUM","COUNTRY_CODE":"UK","LAUNCH_DATE":"2021-04-25","SITE":"VOSTO","DECAY_DATE":null,"FILE":"3032190","GP_ID":"176824811","TLE_LINE0":"0 ONEWEB-0220","TLE_LINE1":"1 48232U 21031Y   21127.58334491 -.00056242  00000-0 -13180-2 0  9992","TLE_LINE2":"2 48232  87.3979 309.0149 0009640 206.6398  68.4714 15.42308204  1834"},{"CCSDS_OMM_VERS":"2.0","COMMENT":"GENERATED VIA SPACE-TRACK.ORG API","CREATION_DATE":"2021-05-07T22:46:12","ORIGINATOR":"18 SPCS","OBJECT_NAME":"ONEWEB-0220","OBJECT_ID":"2021-031Y","CENTER_NAME":"EARTH","REF_FRAME":"TEME","TIME_SYSTEM":"UTC","MEAN_ELEMENT_THEORY":"SGP4","EPOCH":"2021-05-07T20:00:01.000224","MEAN_MOTION":"15.42249455","ECCENTRICITY":"0.00095910","INCLINATION":"87.3979","RA_OF_ASC_NODE":"308.9247","ARG_OF_PERICENTER":"205.6369","MEAN_ANOMALY":"16.5797","EPHEMERIS_TYPE":"0","CLASSIFICATION_TYPE":"U","NORAD_CAT_ID":"48232","ELEMENT_SET_NO":"999","REV_AT_EPOCH":"182","BSTAR":"0.00129000000000","MEAN_MOTION_DOT":"0.00055821","MEAN_MOTION_DDOT":"0.0000000000000","SEMIMAJOR_AXIS":"6817.609","PERIOD":"93.370","APOAPSIS":"446.013","PERIAPSIS":"432.935","OBJECT_TYPE":"PAYLOAD","RCS_SIZE":"MEDIUM","COUNTRY_CODE":"UK","LAUNCH_DATE":"2021-04-25","SITE":"VOSTO","DECAY_DATE":null,"FILE":"3032297","GP_ID":"176827760","TLE_LINE0":"0 ONEWEB-0220","TLE_LINE1":"1 48232U 21031Y   21127.83334491  .00055821  00000-0  12900-2 0  9999","TLE_LINE2":"2 48232  87.3979 308.9247 0009591 205.6369  16.5797 15.42249455  1829"},{"CCSDS_OMM_VERS":"2.0","COMMENT":"GENERATED VIA SPACE-TRACK.ORG API","CREATION_DATE":"2021-05-08T02:14:11","ORIGINATOR":"18 SPCS","OBJECT_NAME":"ONEWEB-0220","OBJECT_ID":"2021-031Y","CENTER_NAME":"EARTH","REF_FRAME":"TEME","TIME_SYSTEM":"UTC","MEAN_ELEMENT_THEORY":"SGP4","EPOCH":"2021-05-07T22:00:01.999584","MEAN_MOTION":"15.42252999","ECCENTRICITY":"0.00096050","INCLINATION":"87.3979","RA_OF_ASC_NODE":"308.8948","ARG_OF_PERICENTER":"205.1225","MEAN_ANOMALY":"119.5114","EPHEMERIS_TYPE":"0","CLASSIFICATION_TYPE":"U","NORAD_CAT_ID":"48232","ELEMENT_SET_NO":"999","REV_AT_EPOCH":"177","BSTAR":"0.00154080000000","MEAN_MOTION_DOT":"0.00066766","MEAN_MOTION_DDOT":"0.0000000000000","SEMIMAJOR_AXIS":"6817.599","PERIOD":"93.370","APOAPSIS":"446.012","PERIAPSIS":"432.915","OBJECT_TYPE":"PAYLOAD","RCS_SIZE":"MEDIUM","COUNTRY_CODE":"UK","LAUNCH_DATE":"2021-04-25","SITE":"VOSTO","DECAY_DATE":null,"FILE":"3032580","GP_ID":"176856960","TLE_LINE0":"0 ONEWEB-0220","TLE_LINE1":"1 48232U 21031Y   21127.91668981  .00066766  00000-0  15408-2 0  9998","TLE_LINE2":"2 48232  87.3979 308.8948 0009605 205.1225 119.5114 15.42252999  1776"}]